NORAD_CAT_ID,OBJECT_NAME,OBJECT_TYPE,EPOCH,MEAN_MOTION,ECCENTRICITY,INCLINATION,RA_OF_ASC_NODE,ARG_OF_PERICENTER,MEAN_ANOMALY,BSTAR,MEAN_MOTION_DOT,MEAN_MOTION_DDOT,TLE_LINE0,TLE_LINE1,TLE_LINE2,SEMIMAJOR_AXIS,PERIOD,APOGEE,PERIGEE,DECAYED
54087.0,STARLINK-5184,PAYLOAD,2023-12-15 07:55:34,15.08825944,0.0001951,53.2202,34.3321,64.9404,295.179,0.00015615,2.197e-05,0.0,0 STARLINK-5184,1 54087U 22136AN  23349.33025613  .00002197  00000-0  15615-3 0  9992,2 54087  53.2202  34.3321 0001951  64.9404 295.1790 15.08825944 64367,6917.923,95.438,541.138,538.439,0.0
54087.0,STARLINK-5184,PAYLOAD,2023-12-16 09:21:43,15.08840586,0.000158,53.2189,29.5774,83.7793,276.338,2.2191e-05,6.5e-07,0.0,0 STARLINK-5184,1 54087U 22136AN  23350.39009224  .00000065  00000-0  22191-4 0  9990,2 54087  53.2189  29.5774 0001580  83.7793 276.3380 15.08840586 64520,6917.879,95.438,540.837,538.651,0.0
54087.0,STARLINK-5184,PAYLOAD,2023-12-17 09:12:31,15.08836981,0.0001581,53.2186,25.1188,94.3023,265.815,4.9661e-05,5.02e-06,0.0,0 STARLINK-5184,1 54087U 22136AN  23351.38369467  .00000502  00000-0  49661-4 0  9995,2 54087  53.2186  25.1188 0001581  94.3023 265.8150 15.08836981 64200,6917.89,95.438,540.848,538.661,0.0
54087.0,STARLINK-5184,PAYLOAD,2023-12-17 23:30:59,15.08840102,0.000157,53.2186,22.4427,95.708,264.4091,5.0403e-05,5.14e-06,0.0,0 STARLINK-5184,1 54087U 22136AN  23351.97985416  .00000514  00000-0  50403-4 0  9997,2 54087  53.2186  22.4427 0001570  95.7080 264.4091 15.08840102 64762,6917.88,95.438,540.831,538.659,0.0
54087.0,STARLINK-5184,PAYLOAD,2023-12-18 09:03:17,15.0884814,0.0001725,53.2192,20.6607,108.6584,251.4596,0.00011437,1.533e-05,0.0,0 STARLINK-5184,1 54087U 22136AN  23352.37728605  .00001533  00000-0  11437-3 0  9992,2 54087  53.2192  20.6607 0001725 108.6584 251.4596 15.08848140 64827,6917.856,95.437,540.914,538.527,0.0
54087.0,STARLINK-5184,PAYLOAD,2023-12-18 23:21:46,15.08833887,0.0001896,53.2197,17.9862,123.8616,236.2557,3.3741e-05,2.49e-06,0.0,0 STARLINK-5184,1 54087U 22136AN  23352.97345724  .00000249  00000-0  33741-4 0  9991,2 54087  53.2197  17.9862 0001896 123.8616 236.2557 15.08833887 64918,6917.899,95.438,541.076,538.452,0.0
54087.0,STARLINK-5184,PAYLOAD,2023-12-19 07:18:43,15.08827436,0.0001624,53.2193,16.4977,112.3651,247.7514,-2.4153e-05,-6.72e-06,0.0,0 STARLINK-5184,1 54087U 22136AN  23353.30466544 -.00000672  00000-0 -24153-4 0  9992,2 54087  53.2193  16.4977 0001624 112.3651 247.7514 15.08827436 64964,6917.919,95.438,540.907,538.66,0.0
54087.0,STARLINK-5184,PAYLOAD,2023-12-20 08:44:53,15.08839865,0.0001357,53.2183,11.7349,88.1068,272.0079,6.1042e-06,-1.91e-06,0.0,0 STARLINK-5184,1 54087U 22136AN  23354.36450294 -.00000191  00000-0  61042-5 0  9998,2 54087  53.2183  11.7349 0001357  88.1068 272.0079 15.08839865 65124,6917.881,95.438,540.685,538.807,0.0
54087.0,STARLINK-5184,PAYLOAD,2023-12-21 08:35:39,15.08845892,0.0001381,53.2184,7.2762,87.464,272.651,0.00025046,3.701e-05,0.0,0 STARLINK-5184,1 54087U 22136AN  23355.35809557  .00003701  00000-0  25046-3 0  9999,2 54087  53.2184   7.2762 0001381  87.4640 272.6510 15.08845892 65278,6917.862,95.437,540.683,538.772,0.0
54087.0,STARLINK-5184,PAYLOAD,2023-12-22 08:26:27,15.08842058,0.0001591,53.2192,2.8145,79.5922,280.5249,7.7099e-05,9.39e-06,0.0,0 STARLINK-5184,1 54087U 22136AN  23356.35170641  .00000939  00000-0  77099-4 0  9991,2 54087  53.2192   2.8145 0001591  79.5922 280.5249 15.08842058 65426,6917.874,95.437,540.84,538.638,0.0
54087.0,STARLINK-5184,PAYLOAD,2023-12-23 09:52:37,15.08848131,0.0001911,53.2214,358.0466,70.2043,289.9155,1.153e-05,-1.05e-06,0.0,0 STARLINK-5184,1 54087U 22136AN  23357.41154350 -.00000105  00000-0  11530-4 0  9992,2 54087  53.2214 358.0466 0001911  70.2043 289.9155 15.08848131 65585,6917.856,95.437,541.043,538.399,0.0
54087.0,STARLINK-5184,PAYLOAD,2023-12-24 06:32:38,15.08843319,0.0001728,53.2196,354.1919,84.4914,275.6276,0.00012042,1.629e-05,0.0,0 STARLINK-5184,1 54087U 22136AN  23358.27266538  .00001629  00000-0  12042-3 0  9998,2 54087  53.2196 354.1919 0001728  84.4914 275.6276 15.08843319 65246,6917.87,95.437,540.931,538.54,0.0
54087.0,STARLINK-5184,PAYLOAD,2023-12-25 03:12:38,15.08851113,0.0001486,53.2196,350.3256,98.4759,261.6401,0.00012296,1.67e-05,0.0,0 STARLINK-5184,1 54087U 22136AN  23359.13377915  .00001670  00000-0  12296-3 0  9993,2 54087  53.2196 350.3256 0001486  98.4759 261.6401 15.08851113 65843,6917.846,95.437,540.739,538.683,0.0
54087.0,STARLINK-5184,PAYLOAD,2023-12-25 06:23:24,15.08853168,0.0001657,53.2194,349.7319,108.4636,251.6536,0.00018732,2.695e-05,0.0,0 STARLINK-5184,1 54087U 22136AN  23359.26625992  .00002695  00000-0  18732-3 0  9997,2 54087  53.2194 349.7319 0001657 108.4636 251.6536 15.08853168 65399,6917.84,95.437,540.851,538.559,0.0
54087.0,STARLINK-5184,PAYLOAD,2023-12-26 03:03:25,15.08839731,0.000206,53.2186,345.8634,121.702,238.4173,-4.376e-05,-9.85e-06,0.0,0 STARLINK-5184,1 54087U 22136AN  23360.12738416 -.00000985  00000-0 -43760-4 0  9992,2 54087  53.2186 345.8634 0002060 121.7020 238.4173 15.08839731 65997,6917.881,95.438,541.171,538.321,0.0
54087.0,STARLINK-5184,PAYLOAD,2023-12-26 06:14:12,15.08842378,0.0001804,53.2183,345.2684,72.6114,287.5075,4.1251e-05,3.68e-06,0.0,0 STARLINK-5184,1 54087U 22136AN  23360.25986744  .00000368  00000-0  41251-4 0  9991,2 54087  53.2183 345.2684 0001804  72.6114 287.5075 15.08842378 65544,6917.873,95.437,540.986,538.49,0.0
54087.0,STARLINK-5184,PAYLOAD,2023-12-27 02:54:05,15.08960189,0.0002273,53.2175,341.3981,143.2734,216.8415,0.00067605,0.00010523,0.0,0 STARLINK-5184,1 54087U 22136AN  23361.12089823  .00010523  00000-0  67605-3 0  9994,2 54087  53.2175 341.3981 0002273 143.2734 216.8415 15.08960189 66147,6917.513,95.43,540.95,537.806,0.0
54087.0,STARLINK-5184,PAYLOAD,2023-12-27 09:15:45,15.08847104,0.000159,53.2195,340.2114,105.8181,254.2986,2.9869e-05,1.87e-06,0.0,0 STARLINK-5184,1 54087U 22136AN  23361.38594385  .00000187  00000-0  29869-4 0  9992,2 54087  53.2195 340.2114 0001590 105.8181 254.2986 15.08847104 66180,6917.859,95.437,540.824,538.624,0.0
54087.0,STARLINK-5184,PAYLOAD,2023-12-27 10:51:08,15.08849398,0.0001555,53.2184,339.9159,106.946,253.1702,0.00013303,1.83e-05,0.0,0 STARLINK-5184,1 54087U 22136AN  23361.45218074  .00001830  00000-0  13303-3 0  9999,2 54087  53.2184 339.9159 0001555 106.9460 253.1702 15.08849398 65725,6917.852,95.437,540.792,538.641,0.0
54087.0,STARLINK-5184,PAYLOAD,2023-12-28 04:20:24,15.08833464,0.0001754,53.2182,336.6445,109.0191,251.0991,5.7525e-05,6.27e-06,0.0,0 STARLINK-5184,1 54087U 22136AN  23362.18083348  .00000627  00000-0  57525-4 0  9992,2 54087  53.2182 336.6445 0001754 109.0191 251.0991 15.08833464 66300,6917.9,95.438,540.979,538.552,0.0
54087.0,STARLINK-5184,PAYLOAD,2023-12-28 07:31:10,15.08840284,0.0001763,53.2187,336.0554,117.7069,242.4103,0.00016122,2.279e-05,0.0,0 STARLINK-5184,1 54087U 22136AN  23362.31331033  .00002279  00000-0  16122-3 0  9996,2 54087  53.2187 336.0554 0001763 117.7069 242.4103 15.08840284 65856,6917.88,95.438,540.964,538.525,0.0
54087.0,STARLINK-5184,PAYLOAD,2023-12-29 07:21:56,15.0884871,0.0001532,53.2182,331.5899,103.4743,256.642,0.00015333,2.154e-05,0.0,0 STARLINK-5184,1 54087U 22136AN  23363.30690792  .00002154  00000-0  15333-3 0  9991,2 54087  53.2182 331.5899 0001532 103.4743 256.6420 15.08848710 66007,6917.854,95.437,540.779,538.659,0.0
54087.0,STARLINK-5184,PAYLOAD,2023-12-30 04:01:58,15.08839549,0.0001906,53.2199,327.7117,77.6948,282.4258,5.8324e-05,6.4e-06,0.0,0 STARLINK-5184,1 54087U 22136AN  23364.16803535  .00000640  00000-0  58324-4 0  9993,2 54087  53.2199 327.7117 0001906  77.6948 282.4258 15.08839549 66601,6917.882,95.438,541.065,538.428,0.0
54087.0,STARLINK-5184,PAYLOAD,2023-12-30 21:31:12,15.08845892,0.0001694,53.2187,324.4525,91.3794,268.7392,7.9191e-05,9.73e-06,0.0,0 STARLINK-5184,1 54087U 22136AN  23364.89667224  .00000973  00000-0  79191-4 0  9990,2 54087  53.2187 324.4525 0001694  91.3794 268.7392 15.08845892 66245,6917.862,95.437,540.899,538.555,0.0
54087.0,STARLINK-5184,PAYLOAD,2023-12-31 07:03:31,15.08849771,0.0001679,53.2183,322.6679,90.5582,269.5603,0.00015313,2.15e-05,0.0,0 STARLINK-5184,1 54087U 22136AN  23365.29410955  .00002150  00000-0  15313-3 0  9996,2 54087  53.2183 322.6679 0001679  90.5582 269.5603 15.08849771 66772,6917.851,95.437,540.877,538.554,0.0
54087.0,STARLINK-5184,PAYLOAD,2024-01-01 03:43:32,15.08840736,0.0001821,53.2188,318.8012,102.4398,257.6798,-1.1183e-05,-4.66e-06,0.0,0 STARLINK-5184,1 54087U 22136AN  24001.15523369 -.00000466  00000-0 -11183-4 0  9995,2 54087  53.2188 318.8012 0001821 102.4398 257.6798 15.08840736 66902,6917.878,95.438,541.003,538.483,0.0
54087.0,STARLINK-5184,PAYLOAD,2024-01-01 06:54:18,15.08842061,0.0001847,53.2195,318.2062,107.2782,252.8412,7.1857e-05,8.56e-06,0.0,0 STARLINK-5184,1 54087U 22136AN  24001.28771291  .00000856  00000-0  71857-4 0  9993,2 54087  53.2195 318.2062 0001847 107.2782 252.8412 15.08842061 66450,6917.874,95.437,541.017,538.461,0.0
54087.0,STARLINK-5184,PAYLOAD,2024-01-02 06:45:05,15.08847719,0.0001835,53.2188,313.7432,113.3966,246.722,1.0301e-05,-1.24e-06,0.0,0 STARLINK-5184,1 54087U 22136AN  24002.28130921 -.00000124  00000-0  10301-4 0  9999,2 54087  53.2188 313.7432 0001835 113.3966 246.7220 15.08847719 67075,6917.857,95.437,540.991,538.452,0.0
54087.0,STARLINK-5184,PAYLOAD,2024-01-02 19:28:10,15.08837847,0.000154,53.2187,311.365,104.7639,255.3524,5.731e-05,6.24e-06,0.0,0 STARLINK-5184,1 54087U 22136AN  24002.81123549  .00000624  00000-0  57310-4 0  9991,2 54087  53.2187 311.3650 0001540 104.7639 255.3524 15.08837847 67157,6917.887,95.438,540.817,538.687,0.0
54087.0,STARLINK-5184,PAYLOAD,2024-01-03 06:35:52,15.08839874,0.0001515,53.2183,309.2843,106.7343,253.3816,5.0234e-05,5.12e-06,0.0,0 STARLINK-5184,1 54087U 22136AN  24003.27491417  .00000512  00000-0  50234-4 0  9998,2 54087  53.2183 309.2843 0001515 106.7343 253.3816 15.08839874 66758,6917.881,95.438,540.794,538.698,0.0
